OSCAR 3
1 01293U 65016F   12336.20680688  .00000186  00000-0  14808-3 0  5092
2 01293 070.0700 320.8687 0021215 280.6490 079.2230 14.05227846437203
COSMOS 252 DEB
1 03784U 68097AW  12334.33478004  .00003303  00000-0  25033-2 0  1844
2 03784 062.2542 299.5081 0682366 353.9693 005.3299 13.19016303432912
OSCAR 5
1 04321U 70008B   12335.15787866 -.00000030  00000-0  10000-3 0  7162
2 04321 102.0016 019.6424 0027707 107.6805 252.7292 12.52165559958718
OSCAR 6
1 06236U 72082B   12335.94730846 -.00000027  00000-0  10000-3 0  7117
2 06236 101.4613 315.1574 0003637 301.1655 058.9064 12.53097518835572
OSCAR 7
1 07530U 74089B   12335.06080415 -.00000027  00000-0  10000-3 0  5430
2 07530 101.4145 325.9372 0011800 318.5185 041.4992 12.53593176740838
OSCAR 8
1 10703U 78026B   12335.96512361  .00000248  00000-0  20017-3 0  6883
2 10703 098.7167 340.1277 0005601 266.4817 093.5701 13.98983916772571
OSCAR 10
1 14129U 83058B   12331.81055288  .00000004  00000-0  10000-3 0   346
2 14129 026.9317 306.8386 6033581 212.1302 090.0521 02.05868476193576
OSCAR 11 (UoSAT 2)
1 14781U 84021B   12335.71357364  .00000384  00000-0  56712-4 0   379
2 14781 097.9323 033.5953 0008634 204.6127 155.4675 14.80679197544566
OSCAR 16 (PACSAT)
1 20439U 90005D   12335.93328997  .00000144  00000-0  69411-4 0  6177
2 20439 098.4480 274.7845 0011590 029.5671 330.6161 14.32117330193868
OSCAR 17 (DOVE)
1 20440U 90005E   12335.51951271  .00000192  00000-0  86612-4 0  3510
2 20440 098.4263 276.1582 0011523 021.7875 338.3793 14.32449342193989
OSCAR 18 (WEBERSAT)
1 20441U 90005F   12335.53000036  .00000180  00000-0  82710-4 0  8480
2 20441 098.4328 275.4003 0012150 027.4466 332.7357 14.32178911193882
OSCAR 19 (LUSAT)
1 20442U 90005G   12335.37232876  .00000068  00000-0  41029-4 0  5482
2 20442 098.4165 276.6762 0012360 022.5696 337.6018 14.32331627193974
JAS 1B (FUJI 2)
1 20480U 90013C   12335.24646501 -.00000051  00000-0 -41173-4 0  2866
2 20480 099.0591 034.1061 0540037 191.8868 166.9047 12.83380621 68791
COSMOS 2123
1 21089U 91007A   12336.24451281  .00000010  00000-0 -58344-5 0  2713
2 21089 082.9225 049.2291 0030668 052.1020 308.2897 13.74544919 94704
OSCAR 22 (UoSAT 5)
1 21575U 91050B   12334.98176241  .00000123  00000-0  53180-4 0  5865
2 21575 098.6178 293.7089 0006947 198.7932 161.2998 14.40055553122276
OSCAR 23 (KITSAT 1)
1 22077U 92052B   12334.71475746 -.00000037  00000-0  10000-3 0  4259
2 22077 066.0784 204.5352 0002381 001.1000 359.0017 12.86474173953799
KITSAT B
1 22825U 93061C   12334.99444804  .00000134  00000-0  69382-4 0  2547
2 22825 098.5937 275.3737 0008756 147.6101 212.5616 14.29514473   173
POSAT 1
1 22826U 93061D   12335.52319374  .00000159  00000-0  78998-4 0    99
2 22826 098.5874 276.2247 0009254 140.1443 220.0423 14.29793860   372
ITAMSAT
1 22828U 93061F   12335.51499815  .00000159  00000-0  78464-4 0  2022
2 22828 098.5811 275.7629 0010820 114.8654 245.3657 14.30062701968687
EYESAT A
1 22829U 93061G   12335.77281450  .00000106  00000-0  57587-4 0  2378
2 22829 098.5798 277.4645 0010669 108.0239 252.2100 14.30471341   786
RADIO ROSTO
1 23439U 94085A   12334.25988177 -.00000039  00000-0  10000-3 0  5338
2 23439 064.8154 025.3052 0159123 189.3895 170.4035 11.27558672738307
JAS 2
1 24278U 96046B   12336.23726043 -.00000005  00000-0  33799-4 0  9889
2 24278 098.5850 055.0343 0350286 317.0532 040.3735 13.52992905804543
TMSAT
1 25396U 98043C   12336.00318606  .00000111  00000-0  66291-4 0  4376
2 25396 098.3579 311.7805 0003223 116.5813 243.5695 14.23973628748006
TECHSAT 1B
1 25397U 98043D   12335.65649745  .00000011  00000-0  23234-4 0  9350
2 25397 098.3860 306.3593 0001903 131.1308 229.0019 14.23309971747708
SEDSAT 1
1 25509U 98061B   12334.78782736  .00000757  00000-0  13577-3 0  3771
2 25509 031.4305 116.4555 0352235 212.5778 145.2663 14.28921625736359
PAN SAT
1 25520U 98064B   12335.51476005  .00002297  00000-0  93539-4 0  1314
2 25520 028.4592 069.4773 0004279 047.6357 312.4593 15.20375092780697
ISS (ZARYA)
1 25544U 98067A   12336.24129821  .00007765  00000-0  13434-3 0  7513
2 25544 051.6490 011.6686 0015683 350.5184 102.4265 15.51869248803969
OSCAR 36 (UOSAT 12)
1 25693U 99021A   12336.12850658  .00000059  00000-0  26723-4 0    30
2 25693 064.5559 194.5115 0007602 204.9270 155.1465 14.79372371734618
OPAL
1 26063U 00004C   12335.15362253  .00000112  00000-0  58533-4 0  5563
2 26063 100.2245 007.6754 0036548 308.4115 051.3783 14.36139169673062
SAUDISAT 1A
1 26545U 00057A   12335.07756702  .00000524  00000-0  83092-4 0  3263
2 26545 064.5522 186.8481 0055569 281.5979 077.8892 14.81859782658075
TIUNGSAT 1
1 26548U 00057D   12335.93970147  .00000791  00000-0  10809-3 0  5074
2 26548 064.5502 129.1738 0050879 275.3174 084.2128 14.85042120659325
SAUDISAT 1B
1 26549U 00057E   12335.15380420  .00000555  00000-0  89135-4 0  4153
2 26549 064.5526 210.3748 0058700 285.5084 073.9542 14.80652492657608
AMSAT OSCAR 40
1 26609U 00072B   12333.87596041 -.00000379  00000-0 -20476-1 0  7397
2 26609 005.3924 154.7548 7988223 280.3855 007.3965 01.25587838 55469
PCSAT
1 26931U 01043C   12335.45026929  .00000155  00000-0  92475-4 0  1983
2 26931 067.0533 051.8061 0004919 258.9690 101.0859 14.29865126583015
SAPPHIRE
1 26932U 01043D   12336.16661754  .00000061  00000-0  55860-4 0  2089
2 26932 067.0582 050.4611 0005823 241.5702 118.4827 14.29827851583169
RUBIN 2
1 27605U 02058A   12335.88799392  .00000497  00000-0  95330-4 0  9426
2 27605 064.5549 129.7346 0070029 214.9900 144.6584 14.73204399534882
SAUDISAT 1C
1 27607U 02058C   12335.56119167  .00000624  00000-0  11552-3 0  9277
2 27607 064.5554 148.7052 0070122 214.5154 145.1351 14.72660781534468
MOZHAYETS 4
1 27939U 03042A   12336.02298804  .00000472  00000-0  97977-4 0  9533
2 27939 097.7985 168.2104 0014420 094.9926 265.2924 14.64245070490296
AMSAT ECHO
1 28375U 04025K   12335.45175127  .00000375  00000-0  12522-3 0  4267
2 28375 098.1711 293.2071 0082597 257.9017 101.2915 14.41041862442718
HAMSAT
1 28650U 05017B   12335.75979140  .00000847  00000-0  10885-3 0  2762
2 28650 097.5826 358.4699 0025390 211.4918 148.4806 14.83415139409664
SSETI-EXPRESS
1 28894U 05043E   12336.20400825  .00000336  00000-0  78764-4 0  5511
2 28894 097.8871 193.0592 0017578 352.4790 007.6143 14.60213832378122
MOZ.5/SAFIR/RUBIN 5/SL-8
1 28898U 05043G   12335.55421074 -.00000631  00000-0 -12468-3 0  3753
2 28898 097.8725 184.6182 0019510 009.4438 350.7126 14.59021043377739
PEHUENSAT 1
1 29712U 07001D   12336.15576678  .00003207  00000-0  36435-3 0   558
2 29712 097.6765 008.8601 0013476 104.0120 256.2581 14.86889068318598
DELFI C3
1 32789U 08021G   12335.22787231  .00003373  00000-0  38082-3 0  4889
2 32789 097.7944 035.9736 0013311 230.0764 129.9198 14.87135063248545
YUBILEINY
1 32953U 08025A   12336.06092667  .00000010  00000-0  00000+0 0  3723
2 32953 082.5014 191.3740 0018545 307.2400 052.6990 12.43029968205291
PRISM (HITOMI)
1 33493U 09002B   12336.17161789  .00003313  00000-0  39471-3 0  3078
2 33493 098.1914 121.0617 0019262 114.2520 246.0666 14.84918361208521
STARS (KUKAI)
1 33498U 09002G   12335.48269456  .00001081  00000-0  17480-3 0  8943
2 33498 098.1281 091.7651 0011705 259.4753 100.5121 14.73341467207005
KKS-1 (KISEKI)
1 33499U 09002H   12336.26059634  .00000638  00000-0  10956-3 0  9103
2 33499 098.1279 090.8995 0009126 260.8547 099.1630 14.72037436207000
SUMBANDILA
1 35870U 09049F   12336.16122416  .00004341  00000-0  17489-3 0  5623
2 35870 097.2149 006.0107 0001327 354.2345 091.6268 15.25354415178058
XIWANG-1 (HOPE-1)
1 36122U 09072B   12336.12749939 -.00000044  00000-0  00000+0 0   596
2 36122 100.3402 031.9396 0007888 087.9245 272.2789 13.16300301142353
JUGNU
1 37839U 11058B   12335.58565207  .00000620  00000-0  19019-3 0  2801
2 37839 019.9588 070.1308 0018624 255.3896 104.4380 14.12109876 58798
RAX-2
1 37853U 11061D   12335.34556985  .00006331  00000-0  49280-3 0  3560
2 37853 101.7061 091.3002 0242131 236.5610 121.2203 14.81596326 58981
AUBIESAT-1
1 37854U 11061E   12336.26337142  .00006099  00000-0  46555-3 0  3557
2 37854 101.7068 093.1264 0243396 232.9282 124.9443 14.82116452 59120
M-CUBED/EXP-1 PRIME
1 37855U 11061F   12335.35202025  .00006458  00000-0  49483-3 0  3516
2 37855 101.7072 091.6875 0243764 235.6925 122.0983 14.81885347 58986
CHIBIS-M
1 38051U 11062C   12335.95310279  .00009043  00000-0  34136-3 0  9397
2 38051 051.6354 083.3863 0012226 271.3848 199.3323 15.27684891 47439